ELYSIUM STAR 2 & LFF    
1 43760U 18099C   24252.17905588  .00140171  00000+0  37113-2 0  9995
2 43760  97.5059 320.7919 0003985 314.5118  45.5800 15.37803535315939
